{
  "type": "FeatureCollection",
  "features": [
    {
      "type": "Feature",
      "properties": {
        "norad_id": 31307,
        "name": "GALAXY 17 (G-17)",
        "group": "intelsat",
        "lat": -2.5062220718747086,
        "lon": -15.355263427296496,
        "alt_km": 35787.38584401291,
        "timestamp": "2025-12-20T22:39:10.313050+00:00",
        "meta_object_name": "GALAXY 17 (G-17)",
        "meta_object_id": "2007-016B",
        "meta_epoch": "2025-12-20T11:24:08.214912",
        "meta_mean_motion": 1.0027177,
        "meta_eccentricity": 0.00054302,
        "meta_inclination": 2.5181,
        "meta_ra_of_asc_node": 82.2,
        "meta_arg_of_pericenter": 169.9015,
        "meta_mean_anomaly": 283.2719,
        "meta_ephemeris_type": 0,
        "meta_classification_type": "U",
        "meta_norad_cat_id": 31307,
        "meta_element_set_no": 999,
        "meta_rev_at_epoch": 6801,
        "meta_bstar": 0,
        "meta_mean_motion_dot": -1.85e-06,
        "meta_mean_motion_ddot": 0,
        "tle_line1": "1 31307U 07016B   25354.47509508 -.00000185  00000+0  00000+0 0  9998",
        "tle_line2": "2 31307   2.5181  82.2000 0005430 169.9015 283.2719  1.00271770 68010"
      },
      "geometry": {
        "type": "Point",
        "coordinates": [
          -15.355263427296496,
          -2.5062220718747086
        ]
      }
    },
    {
      "type": "Feature",
      "properties": {
        "norad_id": 31862,
        "name": "DIRECTV 10",
        "group": "intelsat",
        "lat": -0.0013666900533076398,
        "lon": -33.24358745645298,
        "alt_km": 35786.21474087577,
        "timestamp": "2025-12-20T22:39:10.313060+00:00",
        "meta_object_name": "DIRECTV 10",
        "meta_object_id": "2007-032A",
        "meta_epoch": "2025-12-20T10:17:47.330592",
        "meta_mean_motion": 1.00272197,
        "meta_eccentricity": 2.268e-05,
        "meta_inclination": 0.0081,
        "meta_ra_of_asc_node": 103.0199,
        "meta_arg_of_pericenter": 118.7646,
        "meta_mean_anomaly": 279.1244,
        "meta_ephemeris_type": 0,
        "meta_classification_type": "U",
        "meta_norad_cat_id": 31862,
        "meta_element_set_no": 999,
        "meta_rev_at_epoch": 4380,
        "meta_bstar": 0,
        "meta_mean_motion_dot": -7.9e-07,
        "meta_mean_motion_ddot": 0,
        "tle_line1": "1 31862U 07032A   25354.42902003 -.00000079  00000+0  00000+0 0  9996",
        "tle_line2": "2 31862   0.0081 103.0199 0000226 118.7646 279.1244  1.00272197 43800"
      },
      "geometry": {
        "type": "Point",
        "coordinates": [
          -33.24358745645298,
          -0.0013666900533076398
        ]
      }
    },
    {
      "type": "Feature",
      "properties": {
        "norad_id": 32253,
        "name": "INTELSAT 11 (IS-11)",
        "group": "intelsat",
        "lat": 0.06586124608264848,
        "lon": -100.81685086936866,
        "alt_km": 36095.434579548746,
        "timestamp": "2025-12-20T22:39:10.313071+00:00",
        "meta_object_name": "INTELSAT 11 (IS-11)",
        "meta_object_id": "2007-044B",
        "meta_epoch": "2025-12-20T08:37:38.768736",
        "meta_mean_motion": 0.99052252,
        "meta_eccentricity": 0.00085347,
        "meta_inclination": 3.0988,
        "meta_ra_of_asc_node": 80.8927,
        "meta_arg_of_pericenter": 168.917,
        "meta_mean_anomaly": 160.9677,
        "meta_ephemeris_type": 0,
        "meta_classification_type": "U",
        "meta_norad_cat_id": 32253,
        "meta_element_set_no": 999,
        "meta_rev_at_epoch": 6667,
        "meta_bstar": 0,
        "meta_mean_motion_dot": -5.8e-07,
        "meta_mean_motion_ddot": 0,
        "tle_line1": "1 32253U 07044B   25354.35947649 -.00000058  00000+0  00000+0 0  9998",
        "tle_line2": "2 32253   3.0988  80.8927 0008534 168.9170 160.9677  0.99052252 66676"
      },
      "geometry": {
        "type": "Point",
        "coordinates": [
          -100.81685086936866,
          0.06586124608264848
        ]
      }
    },
    {
      "type": "Feature",
      "properties": {
        "norad_id": 32388,
        "name": "HORIZONS-2",
        "group": "intelsat",
        "lat": -2.1420749128762506,
        "lon": -4.170829226099896,
        "alt_km": 35782.76587625884,
        "timestamp": "2025-12-20T22:39:10.313081+00:00",
        "meta_object_name": "HORIZONS-2",
        "meta_object_id": "2007-063B",
        "meta_epoch": "2025-12-20T12:50:36.450240",
        "meta_mean_motion": 1.00271677,
        "meta_eccentricity": 0.00045883,
        "meta_inclination": 2.1407,
        "meta_ra_of_asc_node": 82.878,
        "meta_arg_of_pericenter": 193.8672,
        "meta_mean_anomaly": 291.4916,
        "meta_ephemeris_type": 0,
        "meta_classification_type": "U",
        "meta_norad_cat_id": 32388,
        "meta_element_set_no": 999,
        "meta_rev_at_epoch": 6602,
        "meta_bstar": 0,
        "meta_mean_motion_dot": -2.32e-06,
        "meta_mean_motion_ddot": 0,
        "tle_line1": "1 32388U 07063B   25354.53514410 -.00000232  00000+0  00000+0 0  9998",
        "tle_line2": "2 32388   2.1407  82.8780 0004588 193.8672 291.4916  1.00271677 66021"
      },
      "geometry": {
        "type": "Point",
        "coordinates": [
          -4.170829226099896,
          -2.1420749128762506
        ]
      }
    },
    {
      "type": "Feature",
      "properties": {
        "norad_id": 32729,
        "name": "DIRECTV 11",
        "group": "intelsat",
        "lat": 0.0023582400399537627,
        "lon": -29.601190383842628,
        "alt_km": 35783.702499787345,
        "timestamp": "2025-12-20T22:39:10.313092+00:00",
        "meta_object_name": "DIRECTV 11",
        "meta_object_id": "2008-013A",
        "meta_epoch": "2025-12-20T12:09:57.854304",
        "meta_mean_motion": 1.00281934,
        "meta_eccentricity": 6.957e-05,
        "meta_inclination": 0.0453,
        "meta_ra_of_asc_node": 198.5655,
        "meta_arg_of_pericenter": 32.627,
        "meta_mean_anomaly": 301.4589,
        "meta_ephemeris_type": 0,
        "meta_classification_type": "U",
        "meta_norad_cat_id": 32729,
        "meta_element_set_no": 999,
        "meta_rev_at_epoch": 4380,
        "meta_bstar": 0,
        "meta_mean_motion_dot": -1.03e-06,
        "meta_mean_motion_ddot": 0,
        "tle_line1": "1 32729U 08013A   25354.50691961 -.00000103  00000+0  00000+0 0  9994",
        "tle_line2": "2 32729   0.0453 198.5655 0000695  32.6270 301.4589  1.00281934 43809"
      },
      "geometry": {
        "type": "Point",
        "coordinates": [
          -29.601190383842628,
          0.0023582400399537627
        ]
      }
    },
    {
      "type": "Feature",
      "properties": {
        "norad_id": 32951,
        "name": "GALAXY 18 (G-18)",
        "group": "intelsat",
        "lat": -0.030018887386231766,
        "lon": -53.43872610773531,
        "alt_km": 35776.15037766886,
        "timestamp": "2025-12-20T22:39:10.313102+00:00",
        "meta_object_name": "GALAXY 18 (G-18)",
        "meta_object_id": "2008-024A",
        "meta_epoch": "2025-12-20T10:15:38.712960",
        "meta_mean_motion": 1.00271052,
        "meta_eccentricity": 0.00028282,
        "meta_inclination": 0.0144,
        "meta_ra_of_asc_node": 55.5326,
        "meta_arg_of_pericenter": 218.577,
        "meta_mean_anomaly": 206.0538,
        "meta_ephemeris_type": 0,
        "meta_classification_type": "U",
        "meta_norad_cat_id": 32951,
        "meta_element_set_no": 999,
        "meta_rev_at_epoch": 4406,
        "meta_bstar": 0,
        "meta_mean_motion_dot": 4.9e-07,
        "meta_mean_motion_ddot": 0,
        "tle_line1": "1 32951U 08024A   25354.42753140  .00000049  00000+0  00000+0 0  9990",
        "tle_line2": "2 32951   0.0144  55.5326 0002828 218.5770 206.0538  1.00271052 44063"
      },
      "geometry": {
        "type": "Point",
        "coordinates": [
          -53.43872610773531,
          -0.030018887386231766
        ]
      }
    },
    {
      "type": "Feature",
      "properties": {
        "norad_id": 33153,
        "name": "INTELSAT 25 (IS-25)",
        "group": "intelsat",
        "lat": -1.5587516583558592,
        "lon": 38.10843583046888,
        "alt_km": 35799.29075622421,
        "timestamp": "2025-12-20T22:39:10.313112+00:00",
        "meta_object_name": "INTELSAT 25 (IS-25)",
        "meta_object_id": "2008-034A",
        "meta_epoch": "2025-12-20T11:22:04.312992",
        "meta_mean_motion": 1.00270047,
        "meta_eccentricity": 0.00047991,
        "meta_inclination": 2.2464,
        "meta_ra_of_asc_node": 82.5669,
        "meta_arg_of_pericenter": 187.6673,
        "meta_mean_anomaly": 318.0792,
        "meta_ephemeris_type": 0,
        "meta_classification_type": "U",
        "meta_norad_cat_id": 33153,
        "meta_element_set_no": 999,
        "meta_rev_at_epoch": 6390,
        "meta_bstar": 0,
        "meta_mean_motion_dot": -2.02e-06,
        "meta_mean_motion_ddot": 0,
        "tle_line1": "1 33153U 08034A   25354.47366103 -.00000202  00000+0  00000+0 0  9992",
        "tle_line2": "2 33153   2.2464  82.5669 0004799 187.6673 318.0792  1.00270047 63907"
      },
      "geometry": {
        "type": "Point",
        "coordinates": [
          38.10843583046888,
          -1.5587516583558592
        ]
      }
    }
  ]
}